CTC1_L_00363001-01
1 66727U 22055VP  26037.47805556  .00000000  00000+0  00000-0 0  9999
2 66727  50.0000   0.0000 0000000   0.0000   0.0000 13.69880581    15
CTC1_L_00363001-02
1 66728U 26367P   26037.47805556  .00000000  00000+0  00000-0 0  9990
2 66728  50.0000   0.0000 0000000   0.0000  90.0000 13.69880581    15
CTC1_L_00363001-03
1 66729U 23620HR  26037.47805556  .00000000  00000+0  00000-0 0  9990
2 66729  50.0000   0.0000 0000000   0.0000 180.0000 13.69880581    16
CTC1_L_00363001-04
1 66730U 25210UO  26037.47805556  .00000000  00000+0  00000-0 0  9999
2 66730  50.0000   0.0000 0000000   0.0000 270.0000 13.69880581    18
CTC1_L_00363002-01
1 66731U 25973MF  26037.47805556  .00000000  00000+0  00000-0 0  9996
2 66731  50.0000  12.0000 0000000   0.0000  12.0000 13.69880581    16
CTC1_L_00363002-02
1 66732U 22789UU  26037.47805556  .00000000  00000+0  00000-0 0  9999
2 66732  50.0000  12.0000 0000000   0.0000 102.0000 13.69880581    17
CTC1_L_00363002-03
1 66733U 26306VS  26037.47805556  .00000000  00000+0  00000-0 0  9999
2 66733  50.0000  12.0000 0000000   0.0000 192.0000 13.69880581    17
CTC1_L_00363002-04
1 66734U 22563FC  26037.47805556  .00000000  00000+0  00000-0 0  9991
2 66734  50.0000  12.0000 0000000   0.0000 282.0000 13.69880581    18
CTC1_L_00363003-01
1 66735U 23033TF  26037.47805556  .00000000  00000+0  00000-0 0  9995
2 66735  50.0000  24.0000 0000000   0.0000  24.0000 13.69880581    16
CTC1_L_00363003-02
1 66736U 26317GA  26037.47805556  .00000000  00000+0  00000-0 0  9994
2 66736  50.0000  24.0000 0000000   0.0000 114.0000 13.69880581    17
CTC1_L_00363003-03
1 66737U 23939NH  26037.47805556  .00000000  00000+0  00000-0 0  9992
2 66737  50.0000  24.0000 0000000   0.0000 204.0000 13.69880581    18
CTC1_L_00363003-04
1 66738U 25575BE  26037.47805556  .00000000  00000+0  00000-0 0  9991
2 66738  50.0000  24.0000 0000000   0.0000 294.0000 13.69880581    18
CTC1_L_00363004-01
1 66739U 24041QS  26037.47805556  .00000000  00000+0  00000-0 0  9999
2 66739  50.0000  36.0000 0000000   0.0000  36.0000 13.69880581    16
CTC1_L_00363004-02
1 66740U 22724UF  26037.47805556  .00000000  00000+0  00000-0 0  9997
2 66740  50.0000  36.0000 0000000   0.0000 126.0000 13.69880581    18
CTC1_L_00363004-03
1 66741U 23532NC  26037.47805556  .00000000  00000+0  00000-0 0  9996
2 66741  50.0000  36.0000 0000000   0.0000 216.0000 13.69880581    19
CTC1_L_00363004-04
1 66742U 22374WS  26037.47805556  .00000000  00000+0  00000-0 0  9990
2 66742  50.0000  36.0000 0000000   0.0000 306.0000 13.69880581    10
CTC1_L_00363005-01
1 66743U 26435IH  26037.47805556  .00000000  00000+0  00000-0 0  9993
2 66743  50.0000  48.0000 0000000   0.0000  48.0000 13.69880581    17
CTC1_L_00363005-02
1 66744U 23719UO  26037.47805556  .00000000  00000+0  00000-0 0  9996
2 66744  50.0000  48.0000 0000000   0.0000 138.0000 13.69880581    18
CTC1_L_00363005-03
1 66745U 24021GD  26037.47805556  .00000000  00000+0  00000-0 0  9994
2 66745  50.0000  48.0000 0000000   0.0000 228.0000 13.69880581    19
CTC1_L_00363005-04
1 66746U 24692VX  26037.47805556  .00000000  00000+0  00000-0 0  9999
2 66746  50.0000  48.0000 0000000   0.0000 318.0000 13.69880581    10
CTC1_L_00363006-01
1 66747U 26359YM  26037.47805556  .00000000  00000+0  00000-0 0  9992
2 66747  50.0000  60.0000 0000000   0.0000  60.0000 13.69880581    19
CTC1_L_00363006-02
1 66748U 24810QA  26037.47805556  .00000000  00000+0  00000-0 0  9993
2 66748  50.0000  60.0000 0000000   0.0000 150.0000 13.69880581    10
CTC1_L_00363006-03
1 66749U 26361BS  26037.47805556  .00000000  00000+0  00000-0 0  9997
2 66749  50.0000  60.0000 0000000   0.0000 240.0000 13.69880581    11
CTC1_L_00363006-04
1 66750U 22981CK  26037.47805556  .00000000  00000+0  00000-0 0  9993
2 66750  50.0000  60.0000 0000000   0.0000 330.0000 13.69880581    13
CTC1_L_00363007-01
1 66751U 22432NT  26037.47805556  .00000000  00000+0  00000-0 0  9995
2 66751  50.0000  72.0000 0000000   0.0000  72.0000 13.69880581    10
CTC1_L_00363007-02
1 66752U 23518LS  26037.47805556  .00000000  00000+0  00000-0 0  9992
2 66752  50.0000  72.0000 0000000   0.0000 162.0000 13.69880581    11
CTC1_L_00363007-03
1 66753U 25766VW  26037.47805556  .00000000  00000+0  00000-0 0  9990
2 66753  50.0000  72.0000 0000000   0.0000 252.0000 13.69880581    12
CTC1_L_00363007-04
1 66754U 25662SZ  26037.47805556  .00000000  00000+0  00000-0 0  9996
2 66754  50.0000  72.0000 0000000   0.0000 342.0000 13.69880581    13
CTC1_L_00363008-01
1 66755U 23899YJ  26037.47805556  .00000000  00000+0  00000-0 0  9997
2 66755  50.0000  84.0000 0000000   0.0000  84.0000 13.69880581    10
CTC1_L_00363008-02
1 66756U 22320DI  26037.47805556  .00000000  00000+0  00000-0 0  9996
2 66756  50.0000  84.0000 0000000   0.0000 174.0000 13.69880581    11
CTC1_L_00363008-03
1 66757U 26228SE  26037.47805556  .00000000  00000+0  00000-0 0  9998
2 66757  50.0000  84.0000 0000000   0.0000 264.0000 13.69880581    12
CTC1_L_00363008-04
1 66758U 25296SV  26037.47805556  .00000000  00000+0  00000-0 0  9993
2 66758  50.0000  84.0000 0000000   0.0000 354.0000 13.69880581    13
CTC1_L_00363009-01
1 66759U 25609PB  26037.47805556  .00000000  00000+0  00000-0 0  9992
2 66759  50.0000  96.0000 0000000   0.0000  96.0000 13.69880581    10
CTC1_L_00363009-02
1 66760U 23855FE  26037.47805556  .00000000  00000+0  00000-0 0  9995
2 66760  50.0000  96.0000 0000000   0.0000 186.0000 13.69880581    12
CTC1_L_00363009-03
1 66761U 22855IX  26037.47805556  .00000000  00000+0  00000-0 0  9995
2 66761  50.0000  96.0000 0000000   0.0000 276.0000 13.69880581    13
CTC1_L_00363009-04
1 66762U 25951JH  26037.47805556  .00000000  00000+0  00000-0 0  9996
2 66762  50.0000  96.0000 0000000   0.0000   6.0000 13.69880581    15
CTC1_L_00363010-01
1 66763U 23205FS  26037.47805556  .00000000  00000+0  00000-0 0  9997
2 66763  50.0000 108.0000 0000000   0.0000 108.0000 13.69880581    13
CTC1_L_00363010-02
1 66764U 23911TP  26037.47805556  .00000000  00000+0  00000-0 0  9992
2 66764  50.0000 108.0000 0000000   0.0000 198.0000 13.69880581    13
CTC1_L_00363010-03
1 66765U 25271IC  26037.47805556  .00000000  00000+0  00000-0 0  9994
2 66765  50.0000 108.0000 0000000   0.0000 288.0000 13.69880581    14
CTC1_L_00363010-04
1 66766U 23747WZ  26037.47805556  .00000000  00000+0  00000-0 0  9991
2 66766  50.0000 108.0000 0000000   0.0000  18.0000 13.69880581    16
CTC1_L_00363011-01
1 66767U 23076AO  26037.47805556  .00000000  00000+0  00000-0 0  9997
2 66767  50.0000 120.0000 0000000   0.0000 120.0000 13.69880581    15
CTC1_L_00363011-02
1 66768U 23474DT  26037.47805556  .00000000  00000+0  00000-0 0  9990
2 66768  50.0000 120.0000 0000000   0.0000 210.0000 13.69880581    16
CTC1_L_00363011-03
1 66769U 26153AT  26037.47805556  .00000000  00000+0  00000-0 0  9998
2 66769  50.0000 120.0000 0000000   0.0000 300.0000 13.69880581    17
CTC1_L_00363011-04
1 66770U 22672IJ  26037.47805556  .00000000  00000+0  00000-0 0  9992
2 66770  50.0000 120.0000 0000000   0.0000  30.0000 13.69880581    19
CTC1_L_00363012-01
1 66771U 25502Z   26037.47805556  .00000000  00000+0  00000-0 0  9998
2 66771  50.0000 132.0000 0000000   0.0000 132.0000 13.69880581    16
CTC1_L_00363012-02
1 66772U 25922HH  26037.47805556  .00000000  00000+0  00000-0 0  9995
2 66772  50.0000 132.0000 0000000   0.0000 222.0000 13.69880581    17
CTC1_L_00363012-03
1 66773U 24769SC  26037.47805556  .00000000  00000+0  00000-0 0  9994
2 66773  50.0000 132.0000 0000000   0.0000 312.0000 13.69880581    18
CTC1_L_00363012-04
1 66774U 26283HM  26037.47805556  .00000000  00000+0  00000-0 0  9998
2 66774  50.0000 132.0000 0000000   0.0000  42.0000 13.69880581    19
CTC1_L_00363013-01
1 66775U 22042RD  26037.47805556  .00000000  00000+0  00000-0 0  9998
2 66775  50.0000 144.0000 0000000   0.0000 144.0000 13.69880581    16
CTC1_L_00363013-02
1 66776U 22559CA  26037.47805556  .00000000  00000+0  00000-0 0  9992
2 66776  50.0000 144.0000 0000000   0.0000 234.0000 13.69880581    17
CTC1_L_00363013-03
1 66777U 24716YX  26037.47805556  .00000000  00000+0  00000-0 0  9990
2 66777  50.0000 144.0000 0000000   0.0000 324.0000 13.69880581    18
CTC1_L_00363013-04
1 66778U 26490TV  26037.47805556  .00000000  00000+0  00000-0 0  9992
2 66778  50.0000 144.0000 0000000   0.0000  54.0000 13.69880581    19
CTC1_L_00363014-01
1 66779U 22093SK  26037.47805556  .00000000  00000+0  00000-0 0  9998
2 66779  50.0000 156.0000 0000000   0.0000 156.0000 13.69880581    16
CTC1_L_00363014-02
1 66780U 22169GX  26037.47805556  .00000000  00000+0  00000-0 0  9994
2 66780  50.0000 156.0000 0000000   0.0000 246.0000 13.69880581    18
CTC1_L_00363014-03
1 66781U 23076EJ  26037.47805556  .00000000  00000+0  00000-0 0  9993
2 66781  50.0000 156.0000 0000000   0.0000 336.0000 13.69880581    19
CTC1_L_00363014-04
1 66782U 25135MM  26037.47805556  .00000000  00000+0  00000-0 0  9992
2 66782  50.0000 156.0000 0000000   0.0000  66.0000 13.69880581    10
CTC1_L_00363015-01
1 66783U 22456HJ  26037.47805556  .00000000  00000+0  00000-0 0  9996
2 66783  50.0000 168.0000 0000000   0.0000 168.0000 13.69880581    17
CTC1_L_00363015-02
1 66784U 26832IF  26037.47805556  .00000000  00000+0  00000-0 0  9999
2 66784  50.0000 168.0000 0000000   0.0000 258.0000 13.69880581    18
CTC1_L_00363015-03
1 66785U 24428PC  26037.47805556  .00000000  00000+0  00000-0 0  9999
2 66785  50.0000 168.0000 0000000   0.0000 348.0000 13.69880581    19
CTC1_L_00363015-04
1 66786U 25347AB  26037.47805556  .00000000  00000+0  00000-0 0  9991
2 66786  50.0000 168.0000 0000000   0.0000  78.0000 13.69880581    10
CTC1_L_00363016-01
1 66787U 25061PT  26037.47805556  .00000000  00000+0  00000-0 0  9995
2 66787  50.0000 180.0000 0000000   0.0000 180.0000 13.69880581    19
CTC1_L_00363016-02
1 66788U 23231DM  26037.47805556  .00000000  00000+0  00000-0 0  9993
2 66788  50.0000 180.0000 0000000   0.0000 270.0000 13.69880581    10
